{"epoch":1784799577,"count":18318,"objects":[{"id":"66743","name":"NUSAT-47","type":"PAYLOAD","l1":"1 66743U 25276CF  26203.43897425  .00005711  00000-0  26338-3 0  9992","l2":"2 66743  97.4171 276.4905 0001216 172.6215 187.5039 15.20639197 35783"},{"id":"68432","name":"NUSAT-53 (JANE GOODALL)","type":"PAYLOAD","l1":"1 68432U 26067S   26203.84381505  .00005912  00000-0  28650-3 0  9992","l2":"2 68432  97.4575 161.8638 0000453 204.2511 155.8702 15.18906790 17352"},{"id":"68442","name":"NUSAT-54(BRANCA MARQUES)","type":"PAYLOAD","l1":"1 68442U 26067AC  26203.64198583  .00004724  00000-0  23532-3 0  9997","l2":"2 68442  97.4559 161.4963 0002978 330.4962  29.6104 15.18046642 17319"}]}